0 FORMOSAT7-2/COSMIC2-2
1 44351U 19036N   22127.72869941  .00004958  00000-0  28263-3 0  9996
2 44351  24.0006 358.0367 0014355 351.5387   8.4873 15.09071428156822
0 FORMOSAT7-2/COSMIC2-2
1 44351U 19036N   22127.72869941  .00004958  00000-0  28263-3 0  9996
2 44351  24.0006 358.0367 0014355 351.5387   8.4873 15.09071428156866
0 FORMOSAT7-2/COSMIC2-2
1 44351U 19036N   22127.99318446  .00004319  00000-0  24347-3 0  9994
2 44351  24.0005 356.2186 0014412 354.7417   5.2934 15.09071724156904
0 FORMOSAT7-2/COSMIC2-2
1 44351U 19036N   22128.32378984  .00004800  00000-0  27293-3 0  9993
2 44351  24.0005 353.9457 0014445 358.7193   1.3272 15.09075164156915
0 FORMOSAT7-2/COSMIC2-2
1 44351U 19036N   22128.32378984  .00004800  00000-0  27293-3 0  9993
2 44351  24.0005 353.9457 0014445 358.7193   1.3272 15.09075164156959
0 FORMOSAT7-2/COSMIC2-2
1 44351U 19036N   22128.72051519  .00004460  00000-0  25209-3 0  9996
2 44351  24.0005 351.2181 0014481   3.3889 356.6711 15.09077512157010
0 FORMOSAT7-2/COSMIC2-2
1 44351U 19036N   22128.72051519  .00004460  00000-0  25209-3 0  9996
2 44351  24.0005 351.2181 0014481   3.3889 356.6711 15.09077512157010
0 FORMOSAT7-2/COSMIC2-2
1 44351U 19036N   22128.91887796  .00004245  00000-0  23891-3 0  9997
2 44351  24.0005 349.8540 0014450   5.7267 354.3401 15.09078233157005
0 FORMOSAT7-2/COSMIC2-2
1 44351U 19036N   22128.98499868  .00004236  00000-0  23837-3 0  9993
2 44351  24.0004 349.3991 0014435   6.5644 353.5047 15.09078717157015
0 FORMOSAT7-2/COSMIC2-2
1 44351U 19036N   22128.98499868  .00004236  00000-0  23837-3 0  9993
2 44351  24.0004 349.3991 0014435   6.5644 353.5047 15.09078717157059
0 FORMOSAT7-2/COSMIC2-2
1 44351U 19036N   22128.98499868  .00004236  00000-0  23837-3 0  9993
2 44351  24.0004 349.3991 0014435   6.5644 353.5047 15.09078717157059
0 FORMOSAT7-2/COSMIC2-2
1 44351U 19036N   22128.98499868  .00004236  00000-0  23837-3 0  9993
2 44351  24.0004 349.3991 0014435   6.5644 353.5047 15.09078717157059
0 FORMOSAT7-2/COSMIC2-2
1 44351U 19036N   22129.71232682  .00003838  00000-0  21392-3 0  9995
2 44351  24.0003 344.3990 0014472  15.2441 344.8497 15.09082580157162
0 FORMOSAT7-2/COSMIC2-2
1 44351U 19036N   22129.91068833  .00003855  00000-0  21496-3 0  9996
2 44351  24.0004 343.0354 0014497  17.6103 342.4901 15.09084167157157
0 FORMOSAT7-2/COSMIC2-2
1 44351U 19036N   22129.91068833  .00003855  00000-0  21496-3 0  9996
2 44351  24.0004 343.0354 0014497  17.6103 342.4901 15.09084167157191
0 FORMOSAT7-2/COSMIC2-2
1 44351U 19036N   22130.24129068  .00003486  00000-0  19234-3 0  9999
2 44351  24.0003 340.7625 0014520  21.4638 338.6472 15.09085561157209
0 FORMOSAT7-2/COSMIC2-2
1 44351U 19036N   22130.24129068  .00003486  00000-0  19234-3 0  9999
2 44351  24.0003 340.7625 0014520  21.4638 338.6472 15.09085561157243
0 FORMOSAT7-2/COSMIC2-2
1 44351U 19036N   22130.70413303  .00003735  00000-0  20758-3 0  9998
2 44351  24.0003 337.5806 0014560  26.8581 333.2675 15.09089294157319
0 FORMOSAT7-2/COSMIC2-2
1 44351U 19036N   22130.70413303  .00003735  00000-0  20758-3 0  9998
2 44351  24.0003 337.5806 0014560  26.8581 333.2675 15.09089294157319
0 FORMOSAT7-2/COSMIC2-2
1 44351U 19036N   22130.83637329  .00003898  00000-0  21758-3 0  9999
2 44351  24.0004 336.6715 0014544  28.4966 331.6331 15.09090758157336
0 FORMOSAT7-2/COSMIC2-2
1 44351U 19036N   22130.90249344  .00003914  00000-0  21851-3 0  9996
2 44351  24.0004 336.2169 0014550  29.2676 330.8640 15.09091276157306
0 FORMOSAT7-2/COSMIC2-2
1 44351U 19036N   22130.90249344  .00003914  00000-0  21851-3 0  9996
2 44351  24.0004 336.2169 0014550  29.2676 330.8640 15.09091276157340
0 FORMOSAT7-2/COSMIC2-2
1 44351U 19036N   22131.23309417  .00003603  00000-0  19946-3 0  9998
2 44351  24.0004 333.9441 0014602  33.0269 327.1144 15.09092767157395
0 FORMOSAT7-2/COSMIC2-2
1 44351U 19036N   22131.56369432  .00003729  00000-0  20719-3 0  9996
2 44351  24.0003 331.6713 0014639  36.8382 323.3125 15.09095186157405
0 FORMOSAT7-2/COSMIC2-2
1 44351U 19036N   22131.76205396  .00003706  00000-0  20574-3 0  9990
2 44351  24.0004 330.3073 0014650  39.1653 320.9909 15.09096632157478
0 FORMOSAT7-2/COSMIC2-2
1 44351U 19036N   22131.76205396  .00003706  00000-0  20574-3 0  9990
2 44351  24.0004 330.3073 0014650  39.1653 320.9909 15.09096632157478
0 FORMOSAT7-2/COSMIC2-2
1 44351U 19036N   22131.89429357  .00003823  00000-0  21292-3 0  9997
2 44351  24.0004 329.3982 0014651  40.7436 319.4162 15.09097879157459
0 FORMOSAT7-2/COSMIC2-2
1 44351U 19036N   22131.96041327  .00003823  00000-0  21292-3 0  9992
2 44351  24.0002 328.9432 0014642  41.5848 318.5767 15.09098338157506
0 FORMOSAT7-2/COSMIC2-2
1 44351U 19036N   22132.22489217  .00004113  00000-0  23067-3 0  9991
2 44351  24.0002 327.1248 0014663  44.5880 315.5801 15.09100855157508
0 FORMOSAT7-2/COSMIC2-2
1 44351U 19036N   22132.75384874  .00004364  00000-0  24596-3 0  9998
2 44351  24.0001 323.4885 0014709  50.7856 309.3952 15.09105432157623
0 FORMOSAT7-2/COSMIC2-2
1 44351U 19036N   22132.75384874  .00004364  00000-0  24596-3 0  9998
2 44351  24.0001 323.4885 0014709  50.7856 309.3952 15.09105432157623
0 FORMOSAT7-2/COSMIC2-2
1 44351U 19036N   22132.75384874  .00004364  00000-0  24596-3 0  9998
2 44351  24.0001 323.4885 0014709  50.7856 309.3952 15.09105432157623
0 FORMOSAT7-2/COSMIC2-2
1 44351U 19036N   22132.81996822  .00004473  00000-0  25264-3 0  9991
2 44351  24.0002 323.0342 0014721  51.5013 308.6809 15.09106197157594
0 FORMOSAT7-2/COSMIC2-2
1 44351U 19036N   22132.81996822  .00004473  00000-0  25264-3 0  9991
2 44351  24.0002 323.0342 0014721  51.5013 308.6809 15.09106197157639
0 FORMOSAT7-2/COSMIC2-2
1 44351U 19036N   22132.81996822  .00004473  00000-0  25264-3 0  9991
2 44351  24.0002 323.0342 0014721  51.5013 308.6809 15.09106197157639
0 FORMOSAT7-2/COSMIC2-2
1 44351U 19036N   22133.28280190  .00004742  00000-0  26893-3 0  9995
2 44351  23.9988 319.8557 0015062  56.8287 303.3659 15.09120803157669
0 FORMOSAT7-2/COSMIC2-2
1 44351U 19036N   22133.28280190  .00004742  00000-0  26893-3 0  9995
2 44351  23.9988 319.8557 0015062  56.8287 303.3659 15.09120803157704
0 FORMOSAT7-2/COSMIC2-2
1 44351U 19036N   22133.28280190  .00004742  00000-0  26893-3 0  9995
2 44351  23.9988 319.8557 0015062  56.8287 303.3659 15.09120803157704
0 FORMOSAT7-2/COSMIC2-2
1 44351U 19036N   22133.81175297  .00004748  00000-0  26940-3 0  9994
2 44351  24.0002 316.2150 0014705  63.2478 296.9529 15.09114810157782
0 FORMOSAT7-2/COSMIC2-2
1 44351U 19036N   22133.87787181  .00005951  00000-0  34292-3 0  9997
2 44351  23.9994 315.7599 0014882  64.3526 295.8514 15.09120599157753
0 FORMOSAT7-2/COSMIC2-2
1 44351U 19036N   22133.87787181  .00005951  00000-0  34292-3 0  9997
2 44351  23.9994 315.7599 0014882  64.3526 295.8514 15.09120599157797
0 FORMOSAT7-2/COSMIC2-2
1 44351U 19036N   22133.87787181  .00005951  00000-0  34292-3 0  9997
2 44351  23.9994 315.7599 0014882  64.3526 295.8514 15.09120599157797
0 FORMOSAT7-2/COSMIC2-2
1 44351U 19036N   22134.86965133  .00006730  00000-0  39053-3 0  9998
2 44351  23.9995 308.9407 0014737  75.0915 285.1220 15.09128117157947
0 FORMOSAT7-2/COSMIC2-2
1 44351U 19036N   22135.13412497  .00005201  00000-0  29700-3 0  9999
2 44351  23.9997 307.1222 0014749  78.1675 282.0482 15.09128059157946
0 FORMOSAT7-2/COSMIC2-2
1 44351U 19036N   22135.13412497  .00005201  00000-0  29700-3 0  9999
2 44351  23.9997 307.1222 0014749  78.1675 282.0482 15.09128059157980
0 FORMOSAT7-2/COSMIC2-2
1 44351U 19036N   22136.12589373  .00005882  00000-0  33854-3 0  9997
2 44351  23.9992 300.3047 0014745  89.9202 270.2991 15.09140417158131
0 FORMOSAT7-2/COSMIC2-2
1 44351U 19036N   22136.52259938  .00005811  00000-0  33417-3 0  9999
2 44351  23.9991 297.5773 0014753  94.5556 265.6633 15.09144090158150
0 FORMOSAT7-2/COSMIC2-2
1 44351U 19036N   22136.52259938  .00005811  00000-0  33417-3 0  9999
2 44351  23.9991 297.5773 0014753  94.5556 265.6633 15.09144090158194
0 FORMOSAT7-2/COSMIC2-2
1 44351U 19036N   22136.78706848  .00005553  00000-0  31835-3 0  9999
2 44351  23.9994 295.7576 0014758  96.9317 263.2865 15.09147611158197
0 FORMOSAT7-2/COSMIC2-2
1 44351U 19036N   22137.11765390  .00005774  00000-0  33180-3 0  9994
2 44351  23.9994 293.4843 0014763 101.1542 259.0622 15.09151738158283
0 FORMOSAT7-2/COSMIC2-2
1 44351U 19036N   22137.51435543  .00006228  00000-0  35953-3 0  9997
2 44351  23.9994 290.7566 0014751 105.7461 254.4670 15.09156944158301
0 FORMOSAT7-2/COSMIC2-2
1 44351U 19036N   22137.71270562  .00006295  00000-0  36359-3 0  9992
2 44351  23.9993 289.3927 0014744 108.0156 252.1955 15.09159278158331
0 FORMOSAT7-2/COSMIC2-2
1 44351U 19036N   22137.71270562  .00006295  00000-0  36359-3 0  9992
2 44351  23.9993 289.3927 0014744 108.0156 252.1955 15.09159278158375
0 FORMOSAT7-2/COSMIC2-2
1 44351U 19036N   22138.70445005  .00006735  00000-0  39034-3 0  9990
2 44351  24.0005 282.5749 0014632 119.5977 240.5986 15.09173486158486
0 FORMOSAT7-2/COSMIC2-2
1 44351U 19036N   22138.70445005  .00006735  00000-0  39034-3 0  9990
2 44351  24.0005 282.5749 0014632 119.5977 240.5986 15.09173486158521
0 FORMOSAT7-2/COSMIC2-2
1 44351U 19036N   22139.49783851  .00007481  00000-0  43575-3 0  9995
2 44351  24.0001 277.1197 0014631 128.7639 231.4174 15.09185226158602
0 FORMOSAT7-2/COSMIC2-2
1 44351U 19036N   22139.76230006  .00006844  00000-0  39680-3 0  9998
2 44351  23.9993 275.3004 0014734 131.9930 228.1830 15.09187112158687
0 FORMOSAT7-2/COSMIC2-2
1 44351U 19036N   22140.48956512  .00007419  00000-0  43180-3 0  9995
2 44351  23.9994 270.3000 0014539 140.6080 219.5483 15.09198149158797
0 FORMOSAT7-2/COSMIC2-2
1 44351U 19036N   22140.55567993  .00007443  00000-0  43323-3 0  9990
2 44351  23.9993 269.8456 0014536 141.3677 218.7868 15.09199053158761
